IRIDIUM 136             
1 42962U 17061H   24211.68480012  .00000052  00000+0  11647-4 0  9996
2 42962  86.3991 312.5591 0002538  98.7579 261.3904 14.34218145356293
